[
    {
        "Altitude(m)": 610405.3158081032,
        "Argument of Periapsis(deg)": 0.0,
        "Eccentricity": 0.0,
        "Inclination(deg)": 60.0,
        "Latitude(deg)": 52.111251646865654,
        "Longitude(deg)": 12.477292758633784,
        "Mean Anomaly(deg)": -245.4545,
        "RAAN(deg)": 340.00000000000006,
        "Satellite Name": "Test1 1503",
        "Satellite Number": 1503,
        "Semi-Major Axis(m)": 6980739.136638005,
        "Time(s)": 0
    },
    {
        "Altitude(m)": 610321.8892421208,
        "Argument of Periapsis(deg)": 0.00010418945913296404,
        "Eccentricity": 0.0,
        "Inclination(deg)": 60.0,
        "Latitude(deg)": 51.74596793662219,
        "Longitude(deg)": 13.246187892153584,
        "Mean Anomaly(deg)": -244.83439385453818,
        "RAAN(deg)": 339.99957995086027,
        "Satellite Name": "Test1 1503",
        "Satellite Number": 1503,
        "Semi-Major Axis(m)": 6980739.136638005,
        "Time(s)": 10
    }
]